[{"OBJECT_NAME":"HAWK-11B","OBJECT_ID":"2024-247C","EPOCH":"2026-03-09T10:44:06.809856","MEAN_MOTION":15.2884707,"ECCENTRICITY":0.00046902,"INCLINATION":45.0161,"RA_OF_ASC_NODE":115.761,"ARG_OF_PERICENTER":333.0326,"MEAN_ANOMALY":27.0314,"EPHEMERIS_TYPE":0,"CLASSIFICATION_TYPE":"U","NORAD_CAT_ID":62379,"ELEMENT_SET_NO":999,"REV_AT_EPOCH":6773,"BSTAR":0.00032841927,"MEAN_MOTION_DOT":9.093e-5,"MEAN_MOTION_DDOT":0},{"OBJECT_NAME":"STARLINK-34194","OBJECT_ID":"2025-113K","EPOCH":"2026-03-09T10:44:17.675520","MEAN_MOTION":15.30197387,"ECCENTRICITY":0.00015582,"INCLINATION":53.1604,"RA_OF_ASC_NODE":91.8602,"ARG_OF_PERICENTER":73.4243,"MEAN_ANOMALY":286.6929,"EPHEMERIS_TYPE":0,"CLASSIFICATION_TYPE":"U","NORAD_CAT_ID":64179,"ELEMENT_SET_NO":999,"REV_AT_EPOCH":4503,"BSTAR":0.0011181958,"MEAN_MOTION_DOT":0.00032903,"MEAN_MOTION_DDOT":0}]
